IRIDIUM 151             
1 43074U 17083E   26115.69198098  .00000112  00000+0  32971-4 0  9991
2 43074  86.3986 344.0114 0002171  84.5654 275.5789 14.34218171436615
IRIDIUM 134             
1 43075U 17083F   26115.73003679  .00000107  00000+0  30999-4 0  9999
2 43075  86.3991 344.0031 0002280  86.0900 274.0557 14.34217854436582
IRIDIUM 137             
1 43076U 17083G   26115.67295233  .00000135  00000+0  40968-4 0  9990
2 43076  86.3995 344.1186 0002145  72.6014 287.5417 14.34218498436642
IRIDIUM 141             
1 43077U 17083H   26115.73637786  .00000148  00000+0  45721-4 0  9997
2 43077  86.3987 343.9257 0002079  86.9119 273.2315 14.34218347436653
IRIDIUM 153             
1 43078U 17083J   26115.82809486  .00000043  00000+0  82043-5 0  9999
2 43078  86.3936 312.3783 0002110  94.8849 265.2588 14.34217791437775
IRIDIUM 131             
1 43079U 17083K   26115.72369406  .00000042  00000+0  81025-5 0  9990
2 43079  86.3996 344.1136 0002087  85.6048 274.5386 14.34217545436583
IRIDIUM 144             
1 43249U 18030A   26115.62513501  .00000048  00000+0  10250-4 0  9995
2 43249  86.3934 312.3937 0002238  86.2119 273.9332 14.34217217422602
IRIDIUM 149             
1 43250U 18030B   26115.63147745  .00000051  00000+0  11294-4 0  9994
2 43250  86.3934 312.3587 0002072  90.0417 270.1016 14.34217325422625
IRIDIUM 157             
1 43251U 18030C   26115.79004038  .00000047  00000+0  95469-5 0  9991
2 43251  86.3935 312.3443 0002164  89.1422 271.0022 14.34217640422622
IRIDIUM 140             
1 43252U 18030D   26115.80906993  .00000062  00000+0  15133-4 0  9991
2 43252  86.3936 312.3490 0002226  88.9152 271.2299 14.34217496422685
IRIDIUM 145             
1 43253U 18030E   26115.79638337  .00000056  00000+0  12894-4 0  9998
2 43253  86.3937 312.3268 0002373  82.5338 277.6127 14.34217721422613
IRIDIUM 146             
1 43254U 18030F   26115.77735524  .00000059  00000+0  14089-4 0  9994
2 43254  86.3935 312.3470 0002230  86.4660 273.6791 14.34217753422629
IRIDIUM 148             
1 43255U 18030G   26115.81542431  .00000056  00000+0  13104-4 0  9997
2 43255  86.3937 312.3735 0002089  86.1740 273.9694 14.34215547422662
IRIDIUM 142             
1 43256U 18030H   26115.78371089  .00000048  00000+0  10155-4 0  9997
2 43256  86.3934 312.2777 0002296  84.4664 275.6793 14.34215034422627
IRIDIUM 150             
1 43257U 18030J   26115.61244671  .00000033  00000+0  46152-5 0  9997
2 43257  86.3936 312.4639 0002198  88.4731 271.6717 14.34217794422626
IRIDIUM 143             
1 43258U 18030K   26115.80272471  .00000051  00000+0  11162-4 0  9990
2 43258  86.3940 312.4748 0002261  86.2730 273.8724 14.34217975422587
IRIDIUM 161             
1 43478U 18047C   26115.68554722  .00000179  00000+0  47209-4 0  9992
2 43478  86.4445 110.4280 0002019  90.7992 269.3440 14.43281134417565
