[{"OBJECT_NAME":"IRIDIUM 151","OBJECT_ID":"2017-083E","EPOCH":"2026-04-25T16:36:27.156672","MEAN_MOTION":14.34218171,"ECCENTRICITY":0.0002171,"INCLINATION":86.3986,"RA_OF_ASC_NODE":344.0114,"ARG_OF_PERICENTER":84.5654,"MEAN_ANOMALY":275.5789,"EPHEMERIS_TYPE":0,"CLASSIFICATION_TYPE":"U","NORAD_CAT_ID":43074,"ELEMENT_SET_NO":999,"REV_AT_EPOCH":43661,"BSTAR":3.2971e-5,"MEAN_MOTION_DOT":1.12e-6,"MEAN_MOTION_DDOT":0},{"OBJECT_NAME":"IRIDIUM 134","OBJECT_ID":"2017-083F","EPOCH":"2026-04-25T17:31:15.178656","MEAN_MOTION":14.34217854,"ECCENTRICITY":0.000228,"INCLINATION":86.3991,"RA_OF_ASC_NODE":344.0031,"ARG_OF_PERICENTER":86.09,"MEAN_ANOMALY":274.0557,"EPHEMERIS_TYPE":0,"CLASSIFICATION_TYPE":"U","NORAD_CAT_ID":43075,"ELEMENT_SET_NO":999,"REV_AT_EPOCH":43658,"BSTAR":3.0999e-5,"MEAN_MOTION_DOT":1.07e-6,"MEAN_MOTION_DDOT":0},{"OBJECT_NAME":"IRIDIUM 137","OBJECT_ID":"2017-083G","EPOCH":"2026-04-25T16:09:03.081312","MEAN_MOTION":14.34218498,"ECCENTRICITY":0.0002145,"INCLINATION":86.3995,"RA_OF_ASC_NODE":344.1186,"ARG_OF_PERICENTER":72.6014,"MEAN_ANOMALY":287.5417,"EPHEMERIS_TYPE":0,"CLASSIFICATION_TYPE":"U","NORAD_CAT_ID":43076,"ELEMENT_SET_NO":999,"REV_AT_EPOCH":43664,"BSTAR":4.0968e-5,"MEAN_MOTION_DOT":1.35e-6,"MEAN_MOTION_DDOT":0},{"OBJECT_NAME":"IRIDIUM 141","OBJECT_ID":"2017-083H","EPOCH":"2026-04-25T17:40:23.047104","MEAN_MOTION":14.34218347,"ECCENTRICITY":0.0002079,"INCLINATION":86.3987,"RA_OF_ASC_NODE":343.9257,"ARG_OF_PERICENTER":86.9119,"MEAN_ANOMALY":273.2315,"EPHEMERIS_TYPE":0,"CLASSIFICATION_TYPE":"U","NORAD_CAT_ID":43077,"ELEMENT_SET_NO":999,"REV_AT_EPOCH":43665,"BSTAR":4.5721e-5,"MEAN_MOTION_DOT":1.48e-6,"MEAN_MOTION_DDOT":0},{"OBJECT_NAME":"IRIDIUM 153","OBJECT_ID":"2017-083J","EPOCH":"2026-04-25T19:52:27.395904","MEAN_MOTION":14.34217791,"ECCENTRICITY":0.000211,"INCLINATION":86.3936,"RA_OF_ASC_NODE":312.3783,"ARG_OF_PERICENTER":94.8849,"MEAN_ANOMALY":265.2588,"EPHEMERIS_TYPE":0,"CLASSIFICATION_TYPE":"U","NORAD_CAT_ID":43078,"ELEMENT_SET_NO":999,"REV_AT_EPOCH":43777,"BSTAR":8.2043e-6,"MEAN_MOTION_DOT":4.3e-7,"MEAN_MOTION_DDOT":0},{"OBJECT_NAME":"IRIDIUM 131","OBJECT_ID":"2017-083K","EPOCH":"2026-04-25T17:22:07.166784","MEAN_MOTION":14.34217545,"ECCENTRICITY":0.0002087,"INCLINATION":86.3996,"RA_OF_ASC_NODE":344.1136,"ARG_OF_PERICENTER":85.6048,"MEAN_ANOMALY":274.5386,"EPHEMERIS_TYPE":0,"CLASSIFICATION_TYPE":"U","NORAD_CAT_ID":43079,"ELEMENT_SET_NO":999,"REV_AT_EPOCH":43658,"BSTAR":8.1025e-6,"MEAN_MOTION_DOT":4.2e-7,"MEAN_MOTION_DDOT":0},{"OBJECT_NAME":"IRIDIUM 144","OBJECT_ID":"2018-030A","EPOCH":"2026-04-25T15:00:11.664864","MEAN_MOTION":14.34217217,"ECCENTRICITY":0.0002238,"INCLINATION":86.3934,"RA_OF_ASC_NODE":312.3937,"ARG_OF_PERICENTER":86.2119,"MEAN_ANOMALY":273.9332,"EPHEMERIS_TYPE":0,"CLASSIFICATION_TYPE":"U","NORAD_CAT_ID":43249,"ELEMENT_SET_NO":999,"REV_AT_EPOCH":42260,"BSTAR":1.025e-5,"MEAN_MOTION_DOT":4.8e-7,"MEAN_MOTION_DDOT":0},{"OBJECT_NAME":"IRIDIUM 149","OBJECT_ID":"2018-030B","EPOCH":"2026-04-25T15:09:19.651680","MEAN_MOTION":14.34217325,"ECCENTRICITY":0.0002072,"INCLINATION":86.3934,"RA_OF_ASC_NODE":312.3587,"ARG_OF_PERICENTER":90.0417,"MEAN_ANOMALY":270.1016,"EPHEMERIS_TYPE":0,"CLASSIFICATION_TYPE":"U","NORAD_CAT_ID":43250,"ELEMENT_SET_NO":999,"REV_AT_EPOCH":42262,"BSTAR":1.1294e-5,"MEAN_MOTION_DOT":5.1e-7,"MEAN_MOTION_DDOT":0},{"OBJECT_NAME":"IRIDIUM 157","OBJECT_ID":"2018-030C","EPOCH":"2026-04-25T18:57:39.488832","MEAN_MOTION":14.3421764,"ECCENTRICITY":0.0002164,"INCLINATION":86.3935,"RA_OF_ASC_NODE":312.3443,"ARG_OF_PERICENTER":89.1422,"MEAN_ANOMALY":271.0022,"EPHEMERIS_TYPE":0,"CLASSIFICATION_TYPE":"U","NORAD_CAT_ID":43251,"ELEMENT_SET_NO":999,"REV_AT_EPOCH":42262,"BSTAR":9.5469e-6,"MEAN_MOTION_DOT":4.7e-7,"MEAN_MOTION_DDOT":0},{"OBJECT_NAME":"IRIDIUM 140","OBJECT_ID":"2018-030D","EPOCH":"2026-04-25T19:25:03.641952","MEAN_MOTION":14.34217496,"ECCENTRICITY":0.0002226,"INCLINATION":86.3936,"RA_OF_ASC_NODE":312.349,"ARG_OF_PERICENTER":88.9152,"MEAN_ANOMALY":271.2299,"EPHEMERIS_TYPE":0,"CLASSIFICATION_TYPE":"U","NORAD_CAT_ID":43252,"ELEMENT_SET_NO":999,"REV_AT_EPOCH":42268,"BSTAR":1.5133e-5,"MEAN_MOTION_DOT":6.2e-7,"MEAN_MOTION_DDOT":0},{"OBJECT_NAME":"IRIDIUM 145","OBJECT_ID":"2018-030E","EPOCH":"2026-04-25T19:06:47.523168","MEAN_MOTION":14.34217721,"ECCENTRICITY":0.0002373,"INCLINATION":86.3937,"RA_OF_ASC_NODE":312.3268,"ARG_OF_PERICENTER":82.5338,"MEAN_ANOMALY":277.6127,"EPHEMERIS_TYPE":0,"CLASSIFICATION_TYPE":"U","NORAD_CAT_ID":43253,"ELEMENT_SET_NO":999,"REV_AT_EPOCH":42261,"BSTAR":1.2894e-5,"MEAN_MOTION_DOT":5.6e-7,"MEAN_MOTION_DDOT":0},{"OBJECT_NAME":"IRIDIUM 146","OBJECT_ID":"2018-030F","EPOCH":"2026-04-25T18:39:23.492736","MEAN_MOTION":14.34217753,"ECCENTRICITY":0.000223,"INCLINATION":86.3935,"RA_OF_ASC_NODE":312.347,"ARG_OF_PERICENTER":86.466,"MEAN_ANOMALY":273.6791,"EPHEMERIS_TYPE":0,"CLASSIFICATION_TYPE":"U","NORAD_CAT_ID":43254,"ELEMENT_SET_NO":999,"REV_AT_EPOCH":42262,"BSTAR":1.4089e-5,"MEAN_MOTION_DOT":5.9e-7,"MEAN_MOTION_DDOT":0},{"OBJECT_NAME":"IRIDIUM 148","OBJECT_ID":"2018-030G","EPOCH":"2026-04-25T19:34:12.660384","MEAN_MOTION":14.34215547,"ECCENTRICITY":0.0002089,"INCLINATION":86.3937,"RA_OF_ASC_NODE":312.3735,"ARG_OF_PERICENTER":86.174,"MEAN_ANOMALY":273.9694,"EPHEMERIS_TYPE":0,"CLASSIFICATION_TYPE":"U","NORAD_CAT_ID":43255,"ELEMENT_SET_NO":999,"REV_AT_EPOCH":42266,"BSTAR":1.3104e-5,"MEAN_MOTION_DOT":5.6e-7,"MEAN_MOTION_DDOT":0},{"OBJECT_NAME":"IRIDIUM 142","OBJECT_ID":"2018-030H","EPOCH":"2026-04-25T18:48:32.620896","MEAN_MOTION":14.34215034,"ECCENTRICITY":0.0002296,"INCLINATION":86.3934,"RA_OF_ASC_NODE":312.2777,"ARG_OF_PERICENTER":84.4664,"MEAN_ANOMALY":275.6793,"EPHEMERIS_TYPE":0,"CLASSIFICATION_TYPE":"U","NORAD_CAT_ID":43256,"ELEMENT_SET_NO":999,"REV_AT_EPOCH":42262,"BSTAR":1.0155e-5,"MEAN_MOTION_DOT":4.8e-7,"MEAN_MOTION_DDOT":0},{"OBJECT_NAME":"IRIDIUM 150","OBJECT_ID":"2018-030J","EPOCH":"2026-04-25T14:41:55.395744","MEAN_MOTION":14.34217794,"ECCENTRICITY":0.0002198,"INCLINATION":86.3936,"RA_OF_ASC_NODE":312.4639,"ARG_OF_PERICENTER":88.4731,"MEAN_ANOMALY":271.6717,"EPHEMERIS_TYPE":0,"CLASSIFICATION_TYPE":"U","NORAD_CAT_ID":43257,"ELEMENT_SET_NO":999,"REV_AT_EPOCH":42262,"BSTAR":4.6152e-6,"MEAN_MOTION_DOT":3.3e-7,"MEAN_MOTION_DDOT":0},{"OBJECT_NAME":"IRIDIUM 143","OBJECT_ID":"2018-030K","EPOCH":"2026-04-25T19:15:55.414944","MEAN_MOTION":14.34217975,"ECCENTRICITY":0.0002261,"INCLINATION":86.394,"RA_OF_ASC_NODE":312.4748,"ARG_OF_PERICENTER":86.273,"MEAN_ANOMALY":273.8724,"EPHEMERIS_TYPE":0,"CLASSIFICATION_TYPE":"U","NORAD_CAT_ID":43258,"ELEMENT_SET_NO":999,"REV_AT_EPOCH":42258,"BSTAR":1.1162e-5,"MEAN_MOTION_DOT":5.1e-7,"MEAN_MOTION_DDOT":0},{"OBJECT_NAME":"IRIDIUM 161","OBJECT_ID":"2018-047C","EPOCH":"2026-04-25T16:27:11.279808","MEAN_MOTION":14.43281134,"ECCENTRICITY":0.0002019,"INCLINATION":86.4445,"RA_OF_ASC_NODE":110.428,"ARG_OF_PERICENTER":90.7992,"MEAN_ANOMALY":269.344,"EPHEMERIS_TYPE":0,"CLASSIFICATION_TYPE":"U","NORAD_CAT_ID":43478,"ELEMENT_SET_NO":999,"REV_AT_EPOCH":41756,"BSTAR":4.7209e-5,"MEAN_MOTION_DOT":1.79e-6,"MEAN_MOTION_DDOT":0}]
